[{"OBJECT_NAME":"STARLINK-4550","OBJECT_ID":"2022-101AV","EPOCH":"2025-09-10T10:21:42.337728","MEAN_MOTION":15.08841896,"ECCENTRICITY":0.0001519,"INCLINATION":53.2168,"RA_OF_ASC_NODE":143.2394,"ARG_OF_PERICENTER":80.1142,"MEAN_ANOMALY":280.0022,"EPHEMERIS_TYPE":0,"CLASSIFICATION_TYPE":"U","NORAD_CAT_ID":53570,"ELEMENT_SET_NO":999,"REV_AT_EPOCH":16992,"BSTAR":0.0001306394,"MEAN_MOTION_DOT":1.792e-5,"MEAN_MOTION_DDOT":0},{"OBJECT_NAME":"STARLINK-4584","OBJECT_ID":"2022-101AW","EPOCH":"2025-09-10T10:27:01.279872","MEAN_MOTION":15.08849112,"ECCENTRICITY":0.00014162,"INCLINATION":53.2161,"RA_OF_ASC_NODE":143.2622,"ARG_OF_PERICENTER":83.1925,"MEAN_ANOMALY":276.9228,"EPHEMERIS_TYPE":0,"CLASSIFICATION_TYPE":"U","NORAD_CAT_ID":53571,"ELEMENT_SET_NO":999,"REV_AT_EPOCH":16992,"BSTAR":0.00031808656,"MEAN_MOTION_DOT":4.779e-5,"MEAN_MOTION_DDOT":0},{"OBJECT_NAME":"STARLINK-4555","OBJECT_ID":"2022-101AX","EPOCH":"2025-09-10T09:49:52.462272","MEAN_MOTION":15.08845726,"ECCENTRICITY":0.00013185,"INCLINATION":53.2168,"RA_OF_ASC_NODE":143.1058,"ARG_OF_PERICENTER":87.3766,"MEAN_ANOMALY":272.7377,"EPHEMERIS_TYPE":0,"CLASSIFICATION_TYPE":"U","NORAD_CAT_ID":53572,"ELEMENT_SET_NO":999,"REV_AT_EPOCH":16923,"BSTAR":0.00015972709,"MEAN_MOTION_DOT":2.255e-5,"MEAN_MOTION_DDOT":0},{"OBJECT_NAME":"STARLINK-4547","OBJECT_ID":"2022-101AY","EPOCH":"2025-09-10T14:00:01.999872","MEAN_MOTION":15.16076466,"ECCENTRICITY":0.00021963,"INCLINATION":53.2163,"RA_OF_ASC_NODE":142.3875,"ARG_OF_PERICENTER":94.5659,"MEAN_ANOMALY":96.5622,"EPHEMERIS_TYPE":0,"CLASSIFICATION_TYPE":"U","NORAD_CAT_ID":53573,"ELEMENT_SET_NO":999,"REV_AT_EPOCH":575,"BSTAR":0.083401084,"MEAN_MOTION_DOT":0.01784144,"MEAN_MOTION_DDOT":0},{"OBJECT_NAME":"STARLINK-4559","OBJECT_ID":"2022-101AZ","EPOCH":"2025-09-10T09:55:10.880832","MEAN_MOTION":15.0884637,"ECCENTRICITY":0.00013631,"INCLINATION":53.2173,"RA_OF_ASC_NODE":143.1261,"ARG_OF_PERICENTER":87.1022,"MEAN_ANOMALY":273.0126,"EPHEMERIS_TYPE":0,"CLASSIFICATION_TYPE":"U","NORAD_CAT_ID":53574,"ELEMENT_SET_NO":999,"REV_AT_EPOCH":16923,"BSTAR":0.00024608114,"MEAN_MOTION_DOT":3.631e-5,"MEAN_MOTION_DDOT":0},{"OBJECT_NAME":"STARLINK-4551","OBJECT_ID":"2022-101BA","EPOCH":"2025-09-10T10:05:46.975776","MEAN_MOTION":15.08837765,"ECCENTRICITY":0.00012671,"INCLINATION":53.2175,"RA_OF_ASC_NODE":143.1712,"ARG_OF_PERICENTER":93.5594,"MEAN_ANOMALY":266.5543,"EPHEMERIS_TYPE":0,"CLASSIFICATION_TYPE":"U","NORAD_CAT_ID":53575,"ELEMENT_SET_NO":999,"REV_AT_EPOCH":16992,"BSTAR":3.6079314e-5,"MEAN_MOTION_DOT":2.86e-6,"MEAN_MOTION_DDOT":0},{"OBJECT_NAME":"STARLINK-4581","OBJECT_ID":"2022-101BB","EPOCH":"2025-09-10T10:07:12.125568","MEAN_MOTION":15.08826762,"ECCENTRICITY":0.00010464,"INCLINATION":53.216,"RA_OF_ASC_NODE":143.1743,"ARG_OF_PERICENTER":98.9751,"MEAN_ANOMALY":261.1359,"EPHEMERIS_TYPE":0,"CLASSIFICATION_TYPE":"U","NORAD_CAT_ID":53576,"ELEMENT_SET_NO":999,"REV_AT_EPOCH":17005,"BSTAR":9.8127955e-5,"MEAN_MOTION_DOT":1.274e-5,"MEAN_MOTION_DDOT":0},{"OBJECT_NAME":"STARLINK-4553","OBJECT_ID":"2022-101BC","EPOCH":"2025-09-10T02:03:33.182208","MEAN_MOTION":15.08842966,"ECCENTRICITY":0.0001205,"INCLINATION":53.2173,"RA_OF_ASC_NODE":144.6355,"ARG_OF_PERICENTER":87.5433,"MEAN_ANOMALY":272.5698,"EPHEMERIS_TYPE":0,"CLASSIFICATION_TYPE":"U","NORAD_CAT_ID":53577,"ELEMENT_SET_NO":999,"REV_AT_EPOCH":17000,"BSTAR":0.00018611643,"MEAN_MOTION_DOT":2.676e-5,"MEAN_MOTION_DDOT":0},{"OBJECT_NAME":"STARLINK-4556","OBJECT_ID":"2022-101BD","EPOCH":"2025-09-10T01:47:38.724864","MEAN_MOTION":15.08834313,"ECCENTRICITY":0.0001344,"INCLINATION":53.2168,"RA_OF_ASC_NODE":144.5661,"ARG_OF_PERICENTER":90.6086,"MEAN_ANOMALY":269.506,"EPHEMERIS_TYPE":0,"CLASSIFICATION_TYPE":"U","NORAD_CAT_ID":53578,"ELEMENT_SET_NO":999,"REV_AT_EPOCH":16918,"BSTAR":7.6238099e-5,"MEAN_MOTION_DOT":9.25e-6,"MEAN_MOTION_DDOT":0},{"OBJECT_NAME":"STARLINK-4580","OBJECT_ID":"2022-101BE","EPOCH":"2025-09-10T09:39:15.892992","MEAN_MOTION":15.08835714,"ECCENTRICITY":0.00013761,"INCLINATION":53.217,"RA_OF_ASC_NODE":143.0564,"ARG_OF_PERICENTER":79.5384,"MEAN_ANOMALY":280.5763,"EPHEMERIS_TYPE":0,"CLASSIFICATION_TYPE":"U","NORAD_CAT_ID":53579,"ELEMENT_SET_NO":999,"REV_AT_EPOCH":16923,"BSTAR":5.4494089e-5,"MEAN_MOTION_DOT":5.79e-6,"MEAN_MOTION_DDOT":0},{"OBJECT_NAME":"STARLINK-4691","OBJECT_ID":"2022-104A","EPOCH":"2025-09-10T06:24:38.855232","MEAN_MOTION":15.08838114,"ECCENTRICITY":0.00013371,"INCLINATION":53.2188,"RA_OF_ASC_NODE":334.3207,"ARG_OF_PERICENTER":100.1848,"MEAN_ANOMALY":259.9295,"EPHEMERIS_TYPE":0,"CLASSIFICATION_TYPE":"U","NORAD_CAT_ID":53588,"ELEMENT_SET_NO":999,"REV_AT_EPOCH":16885,"BSTAR":2.6619059e-5,"MEAN_MOTION_DOT":1.36e-6,"MEAN_MOTION_DDOT":0},{"OBJECT_NAME":"STARLINK-4673","OBJECT_ID":"2022-104B","EPOCH":"2025-09-10T05:58:06.434112","MEAN_MOTION":15.08843862,"ECCENTRICITY":0.00012995,"INCLINATION":53.2181,"RA_OF_ASC_NODE":334.2064,"ARG_OF_PERICENTER":98.4773,"MEAN_ANOMALY":261.6367,"EPHEMERIS_TYPE":0,"CLASSIFICATION_TYPE":"U","NORAD_CAT_ID":53589,"ELEMENT_SET_NO":999,"REV_AT_EPOCH":16870,"BSTAR":0.00028942871,"MEAN_MOTION_DOT":4.322e-5,"MEAN_MOTION_DDOT":0},{"OBJECT_NAME":"STARLINK-4689","OBJECT_ID":"2022-104C","EPOCH":"2025-09-09T12:50:06.003744","MEAN_MOTION":15.08850781,"ECCENTRICITY":0.00013808,"INCLINATION":53.2187,"RA_OF_ASC_NODE":337.5701,"ARG_OF_PERICENTER":74.2761,"MEAN_ANOMALY":285.8384,"EPHEMERIS_TYPE":0,"CLASSIFICATION_TYPE":"U","NORAD_CAT_ID":53590,"ELEMENT_SET_NO":999,"REV_AT_EPOCH":16861,"BSTAR":0.00045138669,"MEAN_MOTION_DOT":6.905e-5,"MEAN_MOTION_DDOT":0},{"OBJECT_NAME":"STARLINK-4674","OBJECT_ID":"2022-104D","EPOCH":"2025-09-10T04:38:38.781888","MEAN_MOTION":15.08827023,"ECCENTRICITY":0.00011108,"INCLINATION":53.2184,"RA_OF_ASC_NODE":334.5699,"ARG_OF_PERICENTER":56.7474,"MEAN_ANOMALY":303.3625,"EPHEMERIS_TYPE":0,"CLASSIFICATION_TYPE":"U","NORAD_CAT_ID":53591,"ELEMENT_SET_NO":999,"REV_AT_EPOCH":16871,"BSTAR":0.00011954187,"MEAN_MOTION_DOT":1.615e-5,"MEAN_MOTION_DDOT":0},{"OBJECT_NAME":"STARLINK-4672","OBJECT_ID":"2022-104E","EPOCH":"2025-09-10T06:10:05.643264","MEAN_MOTION":15.08837523,"ECCENTRICITY":0.00012386,"INCLINATION":53.2178,"RA_OF_ASC_NODE":334.2591,"ARG_OF_PERICENTER":98.6676,"MEAN_ANOMALY":261.4456,"EPHEMERIS_TYPE":0,"CLASSIFICATION_TYPE":"U","NORAD_CAT_ID":53592,"ELEMENT_SET_NO":999,"REV_AT_EPOCH":16870,"BSTAR":7.212854e-5,"MEAN_MOTION_DOT":8.6e-6,"MEAN_MOTION_DDOT":0},{"OBJECT_NAME":"STARLINK-4681","OBJECT_ID":"2022-104G","EPOCH":"2025-09-10T05:47:29.022432","MEAN_MOTION":15.08835856,"ECCENTRICITY":0.00012381,"INCLINATION":53.2187,"RA_OF_ASC_NODE":334.1608,"ARG_OF_PERICENTER":88.9143,"MEAN_ANOMALY":271.1991,"EPHEMERIS_TYPE":0,"CLASSIFICATION_TYPE":"U","NORAD_CAT_ID":53594,"ELEMENT_SET_NO":999,"REV_AT_EPOCH":16884,"BSTAR":8.642701e-5,"MEAN_MOTION_DOT":1.088e-5,"MEAN_MOTION_DDOT":0},{"OBJECT_NAME":"STARLINK-4684","OBJECT_ID":"2022-104H","EPOCH":"2025-09-10T05:52:47.617248","MEAN_MOTION":15.08837639,"ECCENTRICITY":0.00012515,"INCLINATION":53.2184,"RA_OF_ASC_NODE":334.1837,"ARG_OF_PERICENTER":79.5597,"MEAN_ANOMALY":280.5536,"EPHEMERIS_TYPE":0,"CLASSIFICATION_TYPE":"U","NORAD_CAT_ID":53595,"ELEMENT_SET_NO":999,"REV_AT_EPOCH":16870,"BSTAR":-1.7455452e-5,"MEAN_MOTION_DOT":-5.66e-6,"MEAN_MOTION_DDOT":0},{"OBJECT_NAME":"STARLINK-4676","OBJECT_ID":"2022-104L","EPOCH":"2025-09-10T05:15:38.943072","MEAN_MOTION":15.08835548,"ECCENTRICITY":0.00012599,"INCLINATION":53.2184,"RA_OF_ASC_NODE":334.0236,"ARG_OF_PERICENTER":85.4599,"MEAN_ANOMALY":274.6537,"EPHEMERIS_TYPE":0,"CLASSIFICATION_TYPE":"U","NORAD_CAT_ID":53598,"ELEMENT_SET_NO":999,"REV_AT_EPOCH":16837,"BSTAR":8.5746662e-5,"MEAN_MOTION_DOT":1.077e-5,"MEAN_MOTION_DDOT":0},{"OBJECT_NAME":"STARLINK-4677","OBJECT_ID":"2022-104N","EPOCH":"2025-09-10T05:11:50.912736","MEAN_MOTION":15.08832981,"ECCENTRICITY":0.00013141,"INCLINATION":53.2184,"RA_OF_ASC_NODE":334.6978,"ARG_OF_PERICENTER":85.9065,"MEAN_ANOMALY":274.2077,"EPHEMERIS_TYPE":0,"CLASSIFICATION_TYPE":"U","NORAD_CAT_ID":53600,"ELEMENT_SET_NO":999,"REV_AT_EPOCH":16836,"BSTAR":9.7816668e-5,"MEAN_MOTION_DOT":1.269e-5,"MEAN_MOTION_DDOT":0},{"OBJECT_NAME":"STARLINK-4675","OBJECT_ID":"2022-104P","EPOCH":"2025-09-09T12:02:19.496256","MEAN_MOTION":15.08835565,"ECCENTRICITY":0.00011559,"INCLINATION":53.2189,"RA_OF_ASC_NODE":337.3625,"ARG_OF_PERICENTER":93.2727,"MEAN_ANOMALY":266.8398,"EPHEMERIS_TYPE":0,"CLASSIFICATION_TYPE":"U","NORAD_CAT_ID":53601,"ELEMENT_SET_NO":999,"REV_AT_EPOCH":16826,"BSTAR":9.5729477e-5,"MEAN_MOTION_DOT":1.236e-5,"MEAN_MOTION_DDOT":0},{"OBJECT_NAME":"STARLINK-4648","OBJECT_ID":"2022-104Q","EPOCH":"2025-09-10T05:40:11.767584","MEAN_MOTION":15.08838624,"ECCENTRICITY":0.00012524,"INCLINATION":53.2184,"RA_OF_ASC_NODE":329.1511,"ARG_OF_PERICENTER":91.4371,"MEAN_ANOMALY":268.6765,"EPHEMERIS_TYPE":0,"CLASSIFICATION_TYPE":"U","NORAD_CAT_ID":53602,"ELEMENT_SET_NO":999,"REV_AT_EPOCH":16844,"BSTAR":3.0118346e-5,"MEAN_MOTION_DOT":1.91e-6,"MEAN_MOTION_DDOT":0},{"OBJECT_NAME":"STARLINK-4692","OBJECT_ID":"2022-104R","EPOCH":"2025-09-09T12:42:46.994976","MEAN_MOTION":15.08840645,"ECCENTRICITY":0.00012994,"INCLINATION":53.2182,"RA_OF_ASC_NODE":332.557,"ARG_OF_PERICENTER":87.9988,"MEAN_ANOMALY":272.1153,"EPHEMERIS_TYPE":0,"CLASSIFICATION_TYPE":"U","NORAD_CAT_ID":53603,"ELEMENT_SET_NO":999,"REV_AT_EPOCH":16833,"BSTAR":9.0502888e-5,"MEAN_MOTION_DOT":1.153e-5,"MEAN_MOTION_DDOT":0},{"OBJECT_NAME":"STARLINK-4690","OBJECT_ID":"2022-104S","EPOCH":"2025-09-09T10:24:57.397824","MEAN_MOTION":15.08832949,"ECCENTRICITY":0.00014422,"INCLINATION":53.2186,"RA_OF_ASC_NODE":332.6694,"ARG_OF_PERICENTER":83.8736,"MEAN_ANOMALY":276.242,"EPHEMERIS_TYPE":0,"CLASSIFICATION_TYPE":"U","NORAD_CAT_ID":53604,"ELEMENT_SET_NO":999,"REV_AT_EPOCH":16832,"BSTAR":5.623365e-5,"MEAN_MOTION_DOT":6.07e-6,"MEAN_MOTION_DDOT":0}]
